IRIDIUM 921             
1 24873U 97034E   24305.29803461  .00141622  00000+0  19001-2 0  9992
2 24873  86.3780 219.9757 0009017  83.2623 276.9666 15.57427962496211
IRIDIUM 26              
1 24903U 97043A   24305.78477695  .00002024  00000+0  68009-3 0  9991
2 24903  86.4022 206.4451 0002365  86.4496 273.6972 14.36746301424413
IRIDIUM 22              
1 24907U 97043E   24305.80771011  .00001857  00000+0  63795-3 0  9997
2 24907  86.4021 209.7764 0002218  81.8388 278.3060 14.35603900423993
DUMMY MASS 1            
1 24925U 97048A   24305.78997262  .00002067  00000+0  23036-3 0  9995
2 24925  86.3354 240.8291 0004752 219.5291 140.5588 14.86564788471433
DUMMY MASS 2            
1 24926U 97048B   24305.57961439  .00002089  00000+0  23420-3 0  9991
2 24926  86.3353 242.4929 0005216 238.5326 121.5389 14.86319297470941
IRIDIUM 29              
1 24944U 97051A   24305.83755753  .00001906  00000+0  64914-3 0  9994
2 24944  86.3968 239.5771 0002137  82.6887 277.4552 14.36053798420713
IRIDIUM 33              
1 24946U 97051C   24305.78700022  .00001443  00000+0  50375-3 0  9991
2 24946  86.3883 238.8453 0010059  99.6538 260.5795 14.34609401420003
IRIDIUM 28              
1 24948U 97051E   24305.82049849  .00001996  00000+0  66713-3 0  9997
2 24948  86.3976 237.2296 0002722  88.8355 271.3154 14.37002969421112
